[{"OBJECT_NAME":"ALOS (DAICHI)","OBJECT_ID":"2006-002A","EPOCH":"2026-03-10T10:56:39.240672","MEAN_MOTION":14.698137,"ECCENTRICITY":8.73e-5,"INCLINATION":98.1219,"RA_OF_ASC_NODE":25.4076,"ARG_OF_PERICENTER":56.3659,"MEAN_ANOMALY":303.763,"EPHEMERIS_TYPE":0,"CLASSIFICATION_TYPE":"U","NORAD_CAT_ID":28931,"ELEMENT_SET_NO":999,"REV_AT_EPOCH":7359,"BSTAR":0.0003193,"MEAN_MOTION_DOT":1.857e-5,"MEAN_MOTION_DDOT":0},{"OBJECT_NAME":"H-2A R/B","OBJECT_ID":"2006-002B","EPOCH":"2026-03-10T09:37:26.965920","MEAN_MOTION":15.16440954,"ECCENTRICITY":0.005187,"INCLINATION":98.2415,"RA_OF_ASC_NODE":216.4856,"ARG_OF_PERICENTER":238.5346,"MEAN_ANOMALY":121.0809,"EPHEMERIS_TYPE":0,"CLASSIFICATION_TYPE":"U","NORAD_CAT_ID":28932,"ELEMENT_SET_NO":999,"REV_AT_EPOCH":9454,"BSTAR":0.00065433,"MEAN_MOTION_DOT":0.00013102,"MEAN_MOTION_DDOT":0},{"OBJECT_NAME":"RESURS-DK 1","OBJECT_ID":"2006-021A","EPOCH":"2026-03-10T12:39:21.062304","MEAN_MOTION":15.12751468,"ECCENTRICITY":0.0001829,"INCLINATION":69.9317,"RA_OF_ASC_NODE":234.8558,"ARG_OF_PERICENTER":162.7089,"MEAN_ANOMALY":197.414,"EPHEMERIS_TYPE":0,"CLASSIFICATION_TYPE":"U","NORAD_CAT_ID":29228,"ELEMENT_SET_NO":999,"REV_AT_EPOCH":8765,"BSTAR":0.00022766,"MEAN_MOTION_DOT":3.895e-5,"MEAN_MOTION_DDOT":0},{"OBJECT_NAME":"CZ-4B R/B","OBJECT_ID":"2006-046C","EPOCH":"2026-03-10T03:17:11.537376","MEAN_MOTION":15.16910437,"ECCENTRICITY":0.00316965,"INCLINATION":97.5597,"RA_OF_ASC_NODE":114.0449,"ARG_OF_PERICENTER":265.657,"MEAN_ANOMALY":94.1041,"EPHEMERIS_TYPE":0,"CLASSIFICATION_TYPE":"U","NORAD_CAT_ID":29507,"ELEMENT_SET_NO":999,"REV_AT_EPOCH":6011,"BSTAR":0.00030893327,"MEAN_MOTION_DOT":6.097e-5,"MEAN_MOTION_DDOT":0},{"OBJECT_NAME":"CZ-2C R/B","OBJECT_ID":"2007-010B","EPOCH":"2026-03-10T06:56:52.216800","MEAN_MOTION":14.20246402,"ECCENTRICITY":0.005794,"INCLINATION":98.3979,"RA_OF_ASC_NODE":182.5381,"ARG_OF_PERICENTER":292.8235,"MEAN_ANOMALY":66.6829,"EPHEMERIS_TYPE":0,"CLASSIFICATION_TYPE":"U","NORAD_CAT_ID":31114,"ELEMENT_SET_NO":999,"REV_AT_EPOCH":97980,"BSTAR":9.3211e-5,"MEAN_MOTION_DOT":1.61e-6,"MEAN_MOTION_DDOT":0},{"OBJECT_NAME":"COSMO-SKYMED 1","OBJECT_ID":"2007-023A","EPOCH":"2026-03-10T12:48:30.259584","MEAN_MOTION":14.96543052,"ECCENTRICITY":0.0001331,"INCLINATION":97.8874,"RA_OF_ASC_NODE":260.572,"ARG_OF_PERICENTER":99.5351,"MEAN_ANOMALY":260.6021,"EPHEMERIS_TYPE":0,"CLASSIFICATION_TYPE":"U","NORAD_CAT_ID":31598,"ELEMENT_SET_NO":999,"REV_AT_EPOCH":1503,"BSTAR":0.00039761,"MEAN_MOTION_DOT":4.463e-5,"MEAN_MOTION_DDOT":0},{"OBJECT_NAME":"COSMOS 2428","OBJECT_ID":"2007-029A","EPOCH":"2026-03-10T12:37:13.596384","MEAN_MOTION":14.12946345,"ECCENTRICITY":0.0009138,"INCLINATION":70.9434,"RA_OF_ASC_NODE":201.5877,"ARG_OF_PERICENTER":276.1316,"MEAN_ANOMALY":83.8764,"EPHEMERIS_TYPE":0,"CLASSIFICATION_TYPE":"U","NORAD_CAT_ID":31792,"ELEMENT_SET_NO":999,"REV_AT_EPOCH":96421,"BSTAR":5.671e-5,"MEAN_MOTION_DOT":5.8e-7,"MEAN_MOTION_DDOT":0},{"OBJECT_NAME":"SL-16 R/B","OBJECT_ID":"2007-029B","EPOCH":"2026-03-10T11:39:32.876352","MEAN_MOTION":14.1483353,"ECCENTRICITY":0.0002312,"INCLINATION":70.9759,"RA_OF_ASC_NODE":170.7116,"ARG_OF_PERICENTER":276.0314,"MEAN_ANOMALY":160.3948,"EPHEMERIS_TYPE":0,"CLASSIFICATION_TYPE":"U","NORAD_CAT_ID":31793,"ELEMENT_SET_NO":999,"REV_AT_EPOCH":96548,"BSTAR":6.4928e-5,"MEAN_MOTION_DOT":7.7e-7,"MEAN_MOTION_DDOT":0},{"OBJECT_NAME":"KORONAS-FOTON","OBJECT_ID":"2009-003A","EPOCH":"2026-03-10T14:34:20.385696","MEAN_MOTION":15.4334248,"ECCENTRICITY":0.0011357,"INCLINATION":82.4279,"RA_OF_ASC_NODE":274.9239,"ARG_OF_PERICENTER":146.562,"MEAN_ANOMALY":213.6347,"EPHEMERIS_TYPE":0,"CLASSIFICATION_TYPE":"U","NORAD_CAT_ID":33504,"ELEMENT_SET_NO":999,"REV_AT_EPOCH":94588,"BSTAR":0.00025155,"MEAN_MOTION_DOT":0.00011276,"MEAN_MOTION_DDOT":0},{"OBJECT_NAME":"CZ-2C R/B","OBJECT_ID":"2011-030B","EPOCH":"2026-03-10T12:00:39.113280","MEAN_MOTION":14.81227075,"ECCENTRICITY":0.0052315,"INCLINATION":97.8546,"RA_OF_ASC_NODE":26.7473,"ARG_OF_PERICENTER":349.4502,"MEAN_ANOMALY":126.806,"EPHEMERIS_TYPE":0,"CLASSIFICATION_TYPE":"U","NORAD_CAT_ID":37731,"ELEMENT_SET_NO":999,"REV_AT_EPOCH":79021,"BSTAR":0.00029177,"MEAN_MOTION_DOT":2.271e-5,"MEAN_MOTION_DDOT":0},{"OBJECT_NAME":"H-2A R/B","OBJECT_ID":"2012-025E","EPOCH":"2026-03-10T20:47:25.555200","MEAN_MOTION":14.95181483,"ECCENTRICITY":0.0043285,"INCLINATION":98.4739,"RA_OF_ASC_NODE":37.0069,"ARG_OF_PERICENTER":310.5321,"MEAN_ANOMALY":49.213,"EPHEMERIS_TYPE":0,"CLASSIFICATION_TYPE":"U","NORAD_CAT_ID":38341,"ELEMENT_SET_NO":999,"REV_AT_EPOCH":74839,"BSTAR":0.00038843,"MEAN_MOTION_DOT":4.277e-5,"MEAN_MOTION_DDOT":0},{"OBJECT_NAME":"SHIJIAN-16 (SJ-16)","OBJECT_ID":"2013-057A","EPOCH":"2026-03-10T20:03:27.636192","MEAN_MOTION":14.92349451,"ECCENTRICITY":0.0015549,"INCLINATION":74.973,"RA_OF_ASC_NODE":182.9185,"ARG_OF_PERICENTER":109.5551,"MEAN_ANOMALY":250.7318,"EPHEMERIS_TYPE":0,"CLASSIFICATION_TYPE":"U","NORAD_CAT_ID":39358,"ELEMENT_SET_NO":999,"REV_AT_EPOCH":67167,"BSTAR":-1.9821e-5,"MEAN_MOTION_DOT":-2.33e-6,"MEAN_MOTION_DDOT":0},{"OBJECT_NAME":"SL-4 R/B","OBJECT_ID":"2014-021B","EPOCH":"2026-03-10T17:35:04.165440","MEAN_MOTION":15.39220395,"ECCENTRICITY":0.009742,"INCLINATION":51.6081,"RA_OF_ASC_NODE":332.1903,"ARG_OF_PERICENTER":106.8139,"MEAN_ANOMALY":254.3558,"EPHEMERIS_TYPE":0,"CLASSIFICATION_TYPE":"U","NORAD_CAT_ID":39679,"ELEMENT_SET_NO":999,"REV_AT_EPOCH":65643,"BSTAR":0.00039689,"MEAN_MOTION_DOT":0.00018107,"MEAN_MOTION_DDOT":0},{"OBJECT_NAME":"ALOS-2","OBJECT_ID":"2014-029A","EPOCH":"2026-03-10T20:50:42.806400","MEAN_MOTION":14.79510259,"ECCENTRICITY":0.0001397,"INCLINATION":97.9186,"RA_OF_ASC_NODE":168.4482,"ARG_OF_PERICENTER":95.4787,"MEAN_ANOMALY":264.6584,"EPHEMERIS_TYPE":0,"CLASSIFICATION_TYPE":"U","NORAD_CAT_ID":39766,"ELEMENT_SET_NO":999,"REV_AT_EPOCH":63704,"BSTAR":0.000383,"MEAN_MOTION_DOT":2.813e-5,"MEAN_MOTION_DDOT":0},{"OBJECT_NAME":"YAOGAN-29","OBJECT_ID":"2015-069A","EPOCH":"2026-03-10T20:58:36.463296","MEAN_MOTION":14.82995089,"ECCENTRICITY":0.0001816,"INCLINATION":98.0144,"RA_OF_ASC_NODE":98.3067,"ARG_OF_PERICENTER":34.0661,"MEAN_ANOMALY":326.0668,"EPHEMERIS_TYPE":0,"CLASSIFICATION_TYPE":"U","NORAD_CAT_ID":41038,"ELEMENT_SET_NO":999,"REV_AT_EPOCH":55605,"BSTAR":8.8326e-7,"MEAN_MOTION_DOT":-4.7e-7,"MEAN_MOTION_DDOT":0},{"OBJECT_NAME":"ASTRO-H (HITOMI)","OBJECT_ID":"2016-012A","EPOCH":"2026-03-10T19:46:29.034624","MEAN_MOTION":15.10015481,"ECCENTRICITY":0.0009805,"INCLINATION":31.0007,"RA_OF_ASC_NODE":349.2282,"ARG_OF_PERICENTER":342.4768,"MEAN_ANOMALY":17.5531,"EPHEMERIS_TYPE":0,"CLASSIFICATION_TYPE":"U","NORAD_CAT_ID":41337,"ELEMENT_SET_NO":999,"REV_AT_EPOCH":55240,"BSTAR":0.00023588,"MEAN_MOTION_DOT":4.027e-5,"MEAN_MOTION_DDOT":0},{"OBJECT_NAME":"HXMT (HUIYAN)","OBJECT_ID":"2017-034A","EPOCH":"2026-03-10T21:31:07.446144","MEAN_MOTION":15.17484695,"ECCENTRICITY":0.0033059,"INCLINATION":43.0158,"RA_OF_ASC_NODE":9.9631,"ARG_OF_PERICENTER":243.3318,"MEAN_ANOMALY":116.4143,"EPHEMERIS_TYPE":0,"CLASSIFICATION_TYPE":"U","NORAD_CAT_ID":42758,"ELEMENT_SET_NO":999,"REV_AT_EPOCH":48272,"BSTAR":0.00038682,"MEAN_MOTION_DOT":7.769e-5,"MEAN_MOTION_DDOT":0}]
