ALOS (DAICHI)           
1 28931U 06002A   26069.45600973  .00001857  00000+0  31930-3 0  9997
2 28931  98.1219  25.4076 0000873  56.3659 303.7630 14.69813700 73596
H-2A R/B                
1 28932U 06002B   26069.40100655  .00013102  00000+0  65433-3 0  9996
2 28932  98.2415 216.4856 0051870 238.5346 121.0809 15.16440954 94541
RESURS-DK 1             
1 29228U 06021A   26069.52732711  .00003895  00000+0  22766-3 0  9993
2 29228  69.9317 234.8558 0001829 162.7089 197.4140 15.12751468 87650
CZ-4B R/B               
1 29507U 06046C   26069.13693909  .00006097  00000+0  30893-3 0  9999
2 29507  97.5597 114.0449 0031696 265.6570  94.1041 15.16910437 60110
CZ-2C R/B               
1 31114U 07010B   26069.28949325  .00000161  00000+0  93211-4 0  9990
2 31114  98.3979 182.5381 0057940 292.8235  66.6829 14.20246402979806
COSMO-SKYMED 1          
1 31598U 07023A   26069.53368356  .00004463  00000+0  39761-3 0  9995
2 31598  97.8874 260.5720 0001331  99.5351 260.6021 14.96543052 15038
COSMOS 2428             
1 31792U 07029A   26069.52585181  .00000058  00000+0  56710-4 0  9993
2 31792  70.9434 201.5877 0009138 276.1316  83.8764 14.12946345964215
SL-16 R/B               
1 31793U 07029B   26069.48579718  .00000077  00000+0  64928-4 0  9999
2 31793  70.9759 170.7116 0002312 276.0314 160.3948 14.14833530965481
KORONAS-FOTON           
1 33504U 09003A   26069.60718039  .00011276  00000+0  25155-3 0  9991
2 33504  82.4279 274.9239 0011357 146.5620 213.6347 15.43342480945880
CZ-2C R/B               
1 37731U 11030B   26069.50045270  .00002271  00000+0  29177-3 0  9992
2 37731  97.8546  26.7473 0052315 349.4502 126.8060 14.81227075790213
H-2A R/B                
1 38341U 12025E   26069.86626800  .00004277  00000+0  38843-3 0  9996
2 38341  98.4739  37.0069 0043285 310.5321  49.2130 14.95181483748397
SHIJIAN-16 (SJ-16)      
1 39358U 13057A   26069.83573653 -.00000233  00000+0 -19821-4 0  9991
2 39358  74.9730 182.9185 0015549 109.5551 250.7318 14.92349451671679
SL-4 R/B                
1 39679U 14021B   26069.73268710  .00018107  00000+0  39689-3 0  9993
2 39679  51.6081 332.1903 0097420 106.8139 254.3558 15.39220395656433
ALOS-2                  
1 39766U 14029A   26069.86855100  .00002813  00000+0  38300-3 0  9993
2 39766  97.9186 168.4482 0001397  95.4787 264.6584 14.79510259637044
YAOGAN-29               
1 41038U 15069A   26069.87403314 -.00000047  00000+0  88326-6 0  9994
2 41038  98.0144  98.3067 0001816  34.0661 326.0668 14.82995089556050
ASTRO-H (HITOMI)        
1 41337U 16012A   26069.82394716  .00004027  00000+0  23588-3 0  9992
2 41337  31.0007 349.2282 0009805 342.4768  17.5531 15.10015481552401
HXMT (HUIYAN)           
1 42758U 17034A   26069.89661396  .00007769  00000+0  38682-3 0  9990
2 42758  43.0158   9.9631 0033059 243.3318 116.4143 15.17484695482724
